COSMOS 2251 DEB
1 34012U 93036GX  19182.16801346  .00001789  00000-0  38240-3 0  9996
2 34012  74.0254 246.6818 0046936 129.2529 231.2815 14.58900388544424
COSMOS 2251 DEB
1 34013U 93036GY  19181.78761607  .00001575  00000-0  24790-3 0  9997
2 34013  74.0205  44.6081 0029919   7.1282 353.0309 14.73149770550987
COSMOS 2251 DEB
1 34014U 93036GZ  19181.90434889 +.00000229 +00000-0 +60137-4 0  9992
2 34014 074.0246 093.9779 0051476 102.9927 328.3380 14.54014960549340
COSMOS 2251 DEB
1 34015U 93036HA  19182.36063252  .00000307  00000-0  10099-3 0  9994
2 34015  74.0316 244.9550 0030546 199.3845 241.4285 14.42078748544523
COSMOS 2251 DEB
1 34017U 93036HC  19181.67191024  .00006659  00000-0  54980-3 0  9991
2 34017  74.0010  39.6148 0010169 265.3141  94.6884 14.99137314550998
COSMOS 2251 DEB
1 34018U 93036HD  19181.90742578  .00000035  00000-0  45114-4 0  9996
2 34018  73.8788 113.4220 0273176 221.7554 206.2257 13.78288077521861
COSMOS 2251 DEB
1 34019U 93036HE  19181.96014852 +.00000201 +00000-0 +94515-4 0  9994
2 34019 073.9596 019.3672 0068801 356.7664 167.6123 14.25038463538880
COSMOS 2251 DEB
1 34020U 93036HF  19181.94696205 +.00001322 +00000-0 +22033-3 0  9992
2 34020 074.0378 022.5018 0034383 359.9242 000.1918 14.70708725551824
COSMOS 2251 DEB
1 34021U 93036HG  19182.13045663  .00000133  00000-0  47444-4 0  9994
2 34021  74.0393 199.0136 0023059 208.6985 220.2575 14.43189477546156
COSMOS 2251 DEB
1 34022U 93036HH  19181.96901828 +.00000046 +00000-0 +24780-4 0  9990
2 34022 074.0561 277.4877 0023837 214.7994 264.0312 14.35833120543489
COSMOS 2251 DEB
1 34023U 93036HJ  19182.34603233  .00000074  00000-0  34597-4 0  9991
2 34023  74.0282 268.8435 0020164 220.1135 203.4112 14.35951971543640
COSMOS 2251 DEB
1 34024U 93036HK  19181.80832958 +.00000012 +00000-0 +13731-4 0  9999
2 34024 074.0479 303.8470 0022555 219.6841 262.7081 14.32991114542463
COSMOS 2251 DEB
1 34026U 93036HM  19182.38669071  .00000074  00000-0  82825-4 0  9997
2 34026  73.7690 271.2621 0361696 138.4329 298.5650 13.60007242514764
COSMOS 2251 DEB
1 34028U 93036HP  19182.50415760 -.00000072  00000-0 -62043-4 0  9997
2 34028  73.8840 351.6378 0552594 162.6204 259.2170 13.18618912499540
COSMOS 2251 DEB
1 34029U 93036HQ  19182.50404721  .00000826  00000-0  80075-4 0  9993
2 34029  73.9458 114.7345 0077351 168.9413 191.3494 14.92439134559488
COSMOS 2251 DEB
1 34030U 93036HR  19182.53833721  .00002628  00000-0  72459-4 0  9993
2 34030  73.9516 126.3042 0081057 136.4515 345.7524 15.34481117570565
COSMOS 2251 DEB
1 34031U 93036HS  19182.55124306  .00000333  00000-0  10814-3 0  9995
2 34031  74.0187 223.7541 0031229 194.3497 316.2868 14.42408317545011
COSMOS 2251 DEB
1 34032U 93036HT  19181.88423933 +.00000867 +00000-0 +24740-3 0  9994
2 34032 074.0341 249.4041 0050669 179.7644 302.3157 14.45959272544148
COSMOS 2251 DEB
1 34033U 93036HU  19181.70552230 +.00000793 +00000-0 +24126-3 0  9995
2 34033 074.0065 276.4615 0062681 128.1717 351.3963 14.42589312542862
COSMOS 2251 DEB
1 34035U 93036HW  19181.96246087  .00000540  00000-0  20372-3 0  9994
2 34035  74.0731   0.1813 0057969 244.0344 270.5315 14.32789856541072
COSMOS 2251 DEB
1 34036U 93036HX  19181.67558253 +.00000291 +00000-0 +95863-4 0  9995
2 34036 074.0460 274.4747 0045142 191.5249 168.4878 14.41949770543427
COSMOS 2251 DEB
1 34037U 93036HY  19181.90052404 +.00000167 +00000-0 +76058-4 0  9996
2 34037 074.0537 012.0678 0059703 281.7584 077.6871 14.28312248540244
COSMOS 2251 DEB
1 34038U 93036HZ  19182.12963169  .00000797  00000-0  20045-3 0  9994
2 34038  74.0631 209.1058 0028687  98.0237 262.4182 14.52637009546104
COSMOS 2251 DEB
1 34040U 93036JB  19181.84886942 -.00000443  00000-0 -35397-3 0  9994
2 34040  73.9584 330.0329 0363215  30.5654  77.7508 13.61733555515006
COSMOS 2251 DEB
1 34042U 93036JD  19181.68770320 +.00002151 +00000-0 +97163-4 0  9996
2 34042 073.8854 274.4252 0050754 048.5507 312.0032 15.20626425564285
COSMOS 2251 DEB
1 34045U 93036JG  19181.78457788 -.00000011 +00000-0 +56786-5 0  9991
2 34045 074.0400 297.4295 0027736 238.3434 237.6084 14.32861515542662
COSMOS 2251 DEB
1 34046U 93036JH  19181.95475950  .00000144  00000-0  62371-4 0  9994
2 34046  74.0431   7.5113 0099898 307.8600 203.2802 14.30340374540478
COSMOS 2251 DEB
1 34050U 93036JM  19181.73668175 +.00000123 +00000-0 +95115-4 0  9997
2 34050 074.0924 068.7849 0228154 339.7164 072.5974 13.90985106526219
COSMOS 2251 DEB
1 34051U 93036JN  19181.76121809  .00000493  00000-0  79794-4 0  9994
2 34051  73.9882 293.6106 0056040 344.7065  15.2410 14.73284776554133
COSMOS 2251 DEB
1 34053U 93036JQ  19181.80912684 +.00000104 +00000-0 +12183-3 0  9997
2 34053 073.8468 068.3065 0430241 248.9092 106.5514 13.46411499509412
COSMOS 2251 DEB
1 34054U 93036JR  19181.95683053 +.00000495 +00000-0 +11641-3 0  9990
2 34054 074.0373 115.6209 0030594 091.2257 345.1598 14.56782092548706
COSMOS 2251 DEB
1 34055U 93036JS  19181.94943672 +.00001514 +00000-0 +29969-3 0  9991
2 34055 074.1105 138.7749 0085898 008.1789 046.2826 14.60896945548936
COSMOS 2251 DEB
1 34056U 93036JT  19181.69561286 +.00000107 +00000-0 +70212-4 0  9996
2 34056 074.0676 266.9049 0148090 164.2828 310.2811 14.07600910531574
COSMOS 2251 DEB
1 34057U 93036JU  19182.05943792  .00000303  00000-0  77165-4 0  9996
2 34057  74.0197 149.1984 0029555 116.9577 321.4066 14.54635752547467
COSMOS 2251 DEB
1 34058U 93036JV  19181.95684076 +.00000167 +00000-0 +17302-3 0  9996
2 34058 073.9348 026.9993 0384474 108.2694 011.8447 13.53573535512355
COSMOS 2251 DEB
1 34059U 93036JW  19182.32022020  .00000252  00000-0  87286-4 0  9998
2 34059  74.0438 245.9210 0022178 187.1969 256.1512 14.40437063544493
COSMOS 2251 DEB
1 34061U 93036JY  19181.75649672 +.00000093 +00000-0 +41084-4 0  9994
2 34061 074.0420 276.8309 0022107 217.8269 301.3061 14.35795851543212
COSMOS 2251 DEB
1 34062U 93036JZ  19182.52484747  .00000437  00000-0  12490-3 0  9991
2 34062  74.0420 252.2209 0138771 201.3199 268.2777 14.42765787544179
COSMOS 2251 DEB
1 34064U 93036KB  19182.40237362  .00000189  00000-0  74695-4 0  9999
2 34064  74.0355 286.5317 0024300 212.3391 215.2896 14.35360020543015
COSMOS 2251 DEB
1 34065U 93036KC  19182.37700907  .00000031  00000-0  19672-4 0  9996
2 34065  74.0370 266.8067 0017608 226.3290 203.8700 14.35756258543707
COSMOS 2251 DEB
1 34066U 93036KD  19182.54547745  .00001051  00000-0  21942-3 0  9990
2 34066  73.9994 332.7785 0255536 330.0695 105.6596 14.42847604540314
COSMOS 2251 DEB
1 34069U 93036KG  19181.92757497 +.00000808 +00000-0 +14109-3 0  9997
2 34069 074.0154 005.1765 0039095 018.8666 341.3943 14.69256380551989
COSMOS 2251 DEB
1 34070U 93036KH  19181.85651799 +.00000557 +00000-0 +17268-3 0  9999
2 34070 074.0127 236.7376 0038704 197.4995 281.2761 14.43042128544253
IRIDIUM 33 DEB
1 34071U 97051CE  19181.85184055  .00000201  00000-0  57960-4 0  9997
2 34071  86.3487 309.3382 0006652 348.3064  11.7979 14.39601537544194
IRIDIUM 33 DEB
1 34076U 97051CK  19182.17997896  .00003196  00000-0  36388-3 0  9999
2 34076  86.3332 235.8469 0027748 283.5783 136.3077 14.85602571553412
IRIDIUM 33 DEB
1 34077U 97051CL  19182.15044250  .00000578  00000-0  17749-3 0  9996
2 34077  86.3970 336.3747 0014983 296.0069 125.9925 14.39882780542763
IRIDIUM 33 DEB
1 34079U 97051CN  19181.87020587 +.00000395 +00000-0 +98770-4 0  9994
2 34079 086.3905 313.2425 0009936 026.4880 093.1660 14.49012358546615
IRIDIUM 33 DEB
1 34081U 97051CQ  19181.80531226  .00009211  00000-0  43496-3 0  9997
2 34081  86.3086 202.6509 0015935 163.0270 248.7227 15.19176295557123
IRIDIUM 33 DEB
1 34082U 97051CR  19181.93066212 +.00002840 +00000-0 +66830-3 0  9998
2 34082 086.3669 003.4802 0132430 231.6631 127.2612 14.48775792538561
IRIDIUM 33 DEB
1 34086U 97051CV  19182.17756310  .00001285  00000-0  37362-3 0  9994
2 34086  86.3852 334.7379 0017961 317.8186 103.5547 14.43499000543280
IRIDIUM 33 DEB
1 34088U 97051CX  19182.15713053  .00000241  00000-0  63083-4 0  9992
2 34088  86.4029 328.7635 0007881 266.9471 219.1443 14.45252430545027
IRIDIUM 33 DEB
1 34090U 97051CZ  19182.31635419  .00001601  00000-0  16585-3 0  9997
2 34090  86.4159 275.4995 0015223 342.7160  17.3546 14.89278029553995
IRIDIUM 33 DEB
1 34091U 97051DA  19181.89832821 +.00000342 +00000-0 +11994-3 0  9996
2 34091 086.3715 353.1141 0058833 176.8916 183.2656 14.31106352539084
IRIDIUM 33 DEB
1 34093U 97051DC  19182.04906140  .00004790  00000-0  32411-3 0  9990
2 34093  86.2878 195.9520 0016084  94.4097 317.5346 15.06176394557270
IRIDIUM 33 DEB
1 34095U 97051DE  19181.87579340 +.00001497 +00000-0 +31421-3 0  9991
2 34095 086.3843 317.1486 0054478 200.8981 159.0002 14.58067001545183
IRIDIUM 33 DEB
1 34097U 97051DG  19182.39866225 -.00000268  00000-0 -12899-3 0  9997
2 34097  86.2051 301.6430 0097915 346.0422  13.8061 14.19861823536495
IRIDIUM 33 DEB
1 34098U 97051DH  19181.96796240 +.00002059 +00000-0 +27918-3 0  9995
2 34098 086.1356 164.4987 0019672 022.0452 030.1184 14.78291311551009
IRIDIUM 33 DEB
1 34099U 97051DJ  19181.87175933  .00001332  00000-0  26755-3 0  9997
2 34099  86.3646 298.4741 0017166 103.7842  22.2966 14.60829823547232
IRIDIUM 33 DEB
1 34101U 97051DL  19182.51095535  .00001814  00000-0  55961-3 0  9998
2 34101  86.3747   8.7012 0107836 245.2573 113.7372 14.37598330537874
IRIDIUM 33 DEB
1 34102U 97051DM  19181.78887344  .00000783  00000-0  30006-3 0  9991
2 34102  86.3785  24.7552 0116939   1.8911 120.1397 14.25722989535334
IRIDIUM 33 DEB
1 34103U 97051DN  19182.39478576  .00000873  00000-0  19209-3 0  9995
2 34103  86.3472 297.6517 0034285  60.8592   3.0109 14.55970672546208
IRIDIUM 33 DEB
1 34104U 97051DP  19181.80367588  .00002460  00000-0  39967-3 0  9998
2 34104  86.3420 265.6619 0030596 176.3536 323.5060 14.70418181550347
IRIDIUM 33 DEB
1 34105U 97051DQ  19182.15112640  .00003227  00000-0  27023-3 0  9997
2 34105  86.3424 255.7356 0011870 121.4281 238.8113 14.98042355552381
IRIDIUM 33 DEB
1 34106U 97051DR  19181.85504094  .00000432  00000-0  10271-3 0  9994
2 34106  86.3628 298.5809 0016096   0.5532 122.5930 14.51557286546761
